{
  "type": "FeatureCollection",
  "features": [
    {
      "type": "Feature",
      "properties": {
        "norad_id": 54259,
        "name": "EUTELSAT 10B",
        "group": "eutelsat",
        "lat": 0.03629874192441416,
        "lon": -140.6085488163234,
        "alt_km": 35789.10142134535,
        "timestamp": "2025-12-24T07:45:05.870327+00:00",
        "meta_object_name": "EUTELSAT 10B",
        "meta_object_id": "2022-157A",
        "meta_epoch": "2025-12-23T21:44:24.974304",
        "meta_mean_motion": 1.00262718,
        "meta_eccentricity": 6.581e-05,
        "meta_inclination": 0.0577,
        "meta_ra_of_asc_node": 95.7572,
        "meta_arg_of_pericenter": 23.1364,
        "meta_mean_anomaly": 309.9287,
        "meta_ephemeris_type": 0,
        "meta_classification_type": "U",
        "meta_norad_cat_id": 54259,
        "meta_element_set_no": 999,
        "meta_rev_at_epoch": 1126,
        "meta_bstar": 0,
        "meta_mean_motion_dot": 8.8e-07,
        "meta_mean_motion_ddot": 0,
        "tle_line1": "1 54259U 22157A   25357.90584461  .00000088  00000+0  00000+0 0  9995",
        "tle_line2": "2 54259   0.0577  95.7572 0000658  23.1364 309.9287  1.00262718 11264"
      },
      "geometry": {
        "type": "Point",
        "coordinates": [
          -140.6085488163234,
          0.03629874192441416
        ]
      }
    },
    {
      "type": "Feature",
      "properties": {
        "norad_id": 59346,
        "name": "EUTELSAT 36D",
        "group": "eutelsat",
        "lat": -0.023752249615992628,
        "lon": -114.76185617938394,
        "alt_km": 35786.460124633115,
        "timestamp": "2025-12-24T07:45:05.870339+00:00",
        "meta_object_name": "EUTELSAT 36D",
        "meta_object_id": "2024-059A",
        "meta_epoch": "2025-12-23T21:51:46.767744",
        "meta_mean_motion": 1.00272873,
        "meta_eccentricity": 3.465e-05,
        "meta_inclination": 0.0187,
        "meta_ra_of_asc_node": 38.1488,
        "meta_arg_of_pericenter": 327.4077,
        "meta_mean_anomaly": 90.954,
        "meta_ephemeris_type": 0,
        "meta_classification_type": "U",
        "meta_norad_cat_id": 59346,
        "meta_element_set_no": 999,
        "meta_rev_at_epoch": 639,
        "meta_bstar": 0,
        "meta_mean_motion_dot": 1.77e-06,
        "meta_mean_motion_ddot": 0,
        "tle_line1": "1 59346U 24059A   25357.91095796  .00000177  00000+0  00000+0 0  9998",
        "tle_line2": "2 59346   0.0187  38.1488 0000346 327.4077  90.9540  1.00272873  6395"
      },
      "geometry": {
        "type": "Point",
        "coordinates": [
          -114.76185617938394,
          -0.023752249615992628
        ]
      }
    }
  ]
}